NORAD_CAT_ID,OBJECT_NAME,OBJECT_TYPE,EPOCH,MEAN_MOTION,ECCENTRICITY,INCLINATION,RA_OF_ASC_NODE,ARG_OF_PERICENTER,MEAN_ANOMALY,BSTAR,MEAN_MOTION_DOT,MEAN_MOTION_DDOT,TLE_LINE0,TLE_LINE1,TLE_LINE2,SEMIMAJOR_AXIS,PERIOD,APOGEE,PERIGEE,DECAYED
51997.0,STARLINK-3589,PAYLOAD,2023-09-14 15:31:46,15.08837336,0.000125,53.2173,130.9899,98.9421,261.1713,-6.8288e-05,-1.374e-05,0.0,0 STARLINK-3589,1 51997U 22025AT  23257.64706940 -.00001374  00000-0 -68288-4 0  9990,2 51997  53.2173 130.9899 0001250  98.9421 261.1713 15.08837336 85495,6917.889,95.438,540.618,538.889,0.0
51997.0,STARLINK-3589,PAYLOAD,2023-09-14 21:53:19,15.08836437,0.0001377,53.2173,129.8014,84.3462,275.7687,-6.0219e-05,-1.246e-05,0.0,0 STARLINK-3589,1 51997U 22025AT  23257.91203050 -.00001246  00000-0 -60219-4 0  9998,2 51997  53.2173 129.8014 0001377  84.3462 275.7687 15.08836437 84014,6917.891,95.438,540.709,538.804,0.0
51997.0,STARLINK-3589,PAYLOAD,2023-09-15 01:04:05,15.0883751,0.0001381,53.2172,129.2064,85.1887,274.9263,-5.0509e-05,-1.092e-05,0.0,0 STARLINK-3589,1 51997U 22025AT  23258.04450972 -.00001092  00000-0 -50509-4 0  9990,2 51997  53.2172 129.2064 0001381  85.1887 274.9263 15.08837510 84033,6917.888,95.438,540.708,538.798,0.0
51997.0,STARLINK-3589,PAYLOAD,2023-09-15 21:44:05,15.08846289,0.000142,53.2178,125.3401,93.2016,266.9139,4.6352e-05,4.5e-06,0.0,0 STARLINK-3589,1 51997U 22025AT  23258.90562168  .00000450  00000-0  46352-4 0  9992,2 51997  53.2178 125.3401 0001420  93.2016 266.9139 15.08846289 85687,6917.861,95.437,540.709,538.744,0.0
51997.0,STARLINK-3589,PAYLOAD,2023-09-16 18:24:07,15.0883696,0.0001561,53.218,121.4744,94.4461,265.671,0.00011084,1.476e-05,0.0,0 STARLINK-3589,1 51997U 22025AT  23259.76674840  .00001476  00000-0  11084-3 0  9990,2 51997  53.2180 121.4744 0001561  94.4461 265.6710 15.08836960 85811,6917.89,95.438,540.835,538.675,0.0
51997.0,STARLINK-3589,PAYLOAD,2023-09-17 00:45:39,15.08839866,0.0001508,53.2175,120.2843,102.7815,257.3346,7.3714e-05,8.85e-06,0.0,0 STARLINK-3589,1 51997U 22025AT  23260.03170769  .00000885  00000-0  73714-4 0  9995,2 51997  53.2175 120.2843 0001508 102.7815 257.3346 15.08839866 84336,6917.881,95.438,540.789,538.703,0.0
51997.0,STARLINK-3589,PAYLOAD,2023-09-18 00:36:26,15.08847251,0.0001331,53.2165,115.8257,92.4253,267.6891,5.9158e-05,6.54e-06,0.0,0 STARLINK-3589,1 51997U 22025AT  23261.02530527  .00000654  00000-0  59158-4 0  9997,2 51997  53.2165 115.8257 0001331  92.4253 267.6891 15.08847251 86001,6917.858,95.437,540.644,538.802,0.0
51997.0,STARLINK-3589,PAYLOAD,2023-09-18 18:05:41,15.08838095,0.0001296,53.2165,112.5536,93.2109,266.9032,3.591e-05,2.84e-06,0.0,0 STARLINK-3589,1 51997U 22025AT  23261.75395209  .00000284  00000-0  35910-4 0  9992,2 51997  53.2165 112.5536 0001296  93.2109 266.9032 15.08838095 86111,6917.886,95.438,540.648,538.855,0.0
51997.0,STARLINK-3589,PAYLOAD,2023-09-18 21:16:27,15.08842157,0.0001249,53.217,111.9594,91.3445,268.769,7.3927e-05,8.89e-06,0.0,0 STARLINK-3589,1 51997U 22025AT  23261.88642885  .00000889  00000-0  73927-4 0  9992,2 51997  53.2170 111.9594 0001249  91.3445 268.7690 15.08842157 84611,6917.874,95.437,540.603,538.875,0.0
51997.0,STARLINK-3589,PAYLOAD,2023-09-19 17:56:27,15.08850862,0.0001182,53.2172,108.0936,83.2132,276.8995,0.00010688,1.414e-05,0.0,0 STARLINK-3589,1 51997U 22025AT  23262.74754131  .00001414  00000-0  10688-3 0  9995,2 51997  53.2172 108.0936 0001182  83.2132 276.8995 15.08850862 86262,6917.847,95.437,540.53,538.894,0.0
51997.0,STARLINK-3589,PAYLOAD,2023-09-20 00:17:59,15.08859597,0.0001268,53.2163,106.9046,83.631,276.4826,0.00025381,3.756e-05,0.0,0 STARLINK-3589,1 51997U 22025AT  23263.01249607  .00003756  00000-0  25381-3 0  9990,2 51997  53.2163 106.9046 0001268  83.6310 276.4826 15.08859597 86306,6917.82,95.436,540.563,538.808,0.0
51997.0,STARLINK-3589,PAYLOAD,2023-09-20 17:47:15,15.0882956,0.0002146,53.2161,103.6263,121.4342,238.686,-0.00015607,-2.771e-05,0.0,0 STARLINK-3589,1 51997U 22025AT  23263.74115107 -.00002771  00000-0 -15607-3 0  9995,2 51997  53.2161 103.6263 0002146 121.4342 238.6860 15.08829560 86418,6917.912,95.438,541.262,538.293,0.0
51997.0,STARLINK-3589,PAYLOAD,2023-09-20 20:58:02,15.08826276,0.0001451,53.2159,103.0351,85.387,274.7288,-9.9171e-05,-1.865e-05,0.0,0 STARLINK-3589,1 51997U 22025AT  23263.87363767 -.00001865  00000-0 -99171-4 0  9998,2 51997  53.2159 103.0351 0001451  85.3870 274.7288 15.08826276 84918,6917.922,95.438,540.791,538.784,0.0
51997.0,STARLINK-3589,PAYLOAD,2023-09-21 17:38:02,15.08840531,0.0001361,53.216,99.172,89.7633,270.3515,4.5353e-05,4.34e-06,0.0,0 STARLINK-3589,1 51997U 22025AT  23264.73475574  .00000434  00000-0  45353-4 0  9996,2 51997  53.2160  99.1720 0001361  89.7633 270.3515 15.08840531 86568,6917.879,95.438,540.685,538.802,0.0
51997.0,STARLINK-3589,PAYLOAD,2023-09-22 12:42:40,15.08848619,0.0001477,53.2159,95.6038,85.123,274.993,0.00050395,7.743e-05,0.0,0 STARLINK-3589,1 51997U 22025AT  23265.52963725  .00007743  00000-0  50395-3 0  9995,2 51997  53.2159  95.6038 0001477  85.1230 274.9930 15.08848619 85161,6917.854,95.437,540.741,538.697,0.0
51997.0,STARLINK-3589,PAYLOAD,2023-09-22 19:04:12,15.08861844,0.0001487,53.2159,94.4155,83.4975,276.6186,0.00068384,0.00010619,0.0,0 STARLINK-3589,1 51997U 22025AT  23265.79459246  .00010619  00000-0  68384-3 0  9995,2 51997  53.2159  94.4155 0001487  83.4975 276.6186 15.08861844 85208,6917.814,95.436,540.707,538.65,0.0
51997.0,STARLINK-3589,PAYLOAD,2023-09-22 22:14:58,15.08867696,0.0001491,53.2158,93.8203,83.5685,276.5477,0.0007764,0.00012099,0.0,0 STARLINK-3589,1 51997U 22025AT  23265.92706976  .00012099  00000-0  77640-3 0  9994,2 51997  53.2158  93.8203 0001491  83.5685 276.5477 15.08867696 86741,6917.796,95.436,540.692,538.629,0.0
51997.0,STARLINK-3589,PAYLOAD,2023-09-23 06:11:53,15.08875848,0.0001493,53.2158,92.3336,82.602,277.5142,0.00078805,0.00012288,0.0,0 STARLINK-3589,1 51997U 22025AT  23266.25826251  .00012288  00000-0  78805-3 0  9994,2 51997  53.2158  92.3336 0001493  82.6020 277.5142 15.08875848 85272,6917.771,95.435,540.669,538.603,0.0
51997.0,STARLINK-3589,PAYLOAD,2023-09-23 18:54:59,15.08848154,0.0001329,53.2163,89.9545,108.4525,251.6612,0.00026884,3.994e-05,0.0,0 STARLINK-3589,1 51997U 22025AT  23266.78818926  .00003994  00000-0  26884-3 0  9996,2 51997  53.2163  89.9545 0001329 108.4525 251.6612 15.08848154 86879,6917.855,95.437,540.64,538.801,0.0
51997.0,STARLINK-3589,PAYLOAD,2023-09-24 12:24:14,15.08838976,0.0001427,53.2174,86.6832,106.6133,253.5016,0.00027346,4.067e-05,0.0,0 STARLINK-3589,1 51997U 22025AT  23267.51683298  .00004067  00000-0  27346-3 0  9996,2 51997  53.2174  86.6832 0001427 106.6133 253.5016 15.08838976 85462,6917.884,95.438,540.736,538.761,0.0
51997.0,STARLINK-3589,PAYLOAD,2023-09-24 18:45:46,15.08843553,0.0001366,53.2175,85.494,106.4389,253.6754,4.2245e-05,3.85e-06,0.0,0 STARLINK-3589,1 51997U 22025AT  23267.78179114  .00000385  00000-0  42245-4 0  9997,2 51997  53.2175  85.4940 0001366 106.4389 253.6754 15.08843553 87024,6917.87,95.437,540.68,538.79,0.0
51997.0,STARLINK-3589,PAYLOAD,2023-09-25 12:15:01,15.08840963,0.0001325,53.2179,82.2244,103.0577,257.0563,0.00016176,2.288e-05,0.0,0 STARLINK-3589,1 51997U 22025AT  23268.51043418  .00002288  00000-0  16176-3 0  9993,2 51997  53.2179  82.2244 0001325 103.0577 257.0563 15.08840963 85618,6917.877,95.437,540.659,538.826,0.0
51997.0,STARLINK-3589,PAYLOAD,2023-09-25 18:36:33,15.08845647,0.0001299,53.218,81.0366,96.0735,264.0405,0.00022169,3.243e-05,0.0,0 STARLINK-3589,1 51997U 22025AT  23268.77539244  .00003243  00000-0  22169-3 0  9999,2 51997  53.2180  81.0366 0001299  96.0735 264.0405 15.08845647 85650,6917.863,95.437,540.627,538.829,0.0
51997.0,STARLINK-3589,PAYLOAD,2023-09-26 16:51:58,15.0883249,0.000132,53.2174,76.8719,90.849,269.2653,7.5454e-06,-1.68e-06,0.0,0 STARLINK-3589,1 51997U 22025AT  23269.70276183 -.00000168  00000-0  75454-5 0  9994,2 51997  53.2174  76.8719 0001320  90.8490 269.2653 15.08832490 87311,6917.903,95.438,540.682,538.855,0.0
51997.0,STARLINK-3589,PAYLOAD,2023-09-26 20:02:44,15.08833733,0.0001323,53.2175,76.2765,86.848,273.2663,3.9922e-05,3.47e-06,0.0,0 STARLINK-3589,1 51997U 22025AT  23269.83524204  .00000347  00000-0  39922-4 0  9995,2 51997  53.2175  76.2765 0001323  86.8480 273.2663 15.08833733 85814,6917.9,95.438,540.68,538.849,0.0
51997.0,STARLINK-3589,PAYLOAD,2023-09-27 10:21:13,15.08835243,0.0001289,53.2171,73.5987,88.7142,271.3998,3.9765e-05,3.45e-06,0.0,0 STARLINK-3589,1 51997U 22025AT  23270.43140414  .00000345  00000-0  39765-4 0  9993,2 51997  53.2171  73.5987 0001289  88.7142 271.3998 15.08835243 85901,6917.895,95.438,540.652,538.868,0.0
51997.0,STARLINK-3589,PAYLOAD,2023-09-27 18:18:08,15.08842043,0.0001296,53.217,72.1126,89.307,270.807,0.00020263,2.939e-05,0.0,0 STARLINK-3589,1 51997U 22025AT  23270.76260270  .00002939  00000-0  20263-3 0  9995,2 51997  53.2170  72.1126 0001296  89.3070 270.8070 15.08842043 87470,6917.874,95.437,540.636,538.843,0.0
51997.0,STARLINK-3589,PAYLOAD,2023-09-28 14:58:09,15.08838239,0.0001324,53.2159,68.2462,99.4515,260.6627,0.00046652,7.144e-05,0.0,0 STARLINK-3589,1 51997U 22025AT  23271.62372599  .00007144  00000-0  46652-3 0  9992,2 51997  53.2159  68.2462 0001324  99.4515 260.6627 15.08838239 86087,6917.886,95.438,540.667,538.835,0.0
51997.0,STARLINK-3589,PAYLOAD,2023-09-28 18:08:55,15.08847598,0.0001187,53.216,67.6515,87.7494,272.3634,0.00022554,3.304e-05,0.0,0 STARLINK-3589,1 51997U 22025AT  23271.75620101  .00003304  00000-0  22554-3 0  9990,2 51997  53.2160  67.6515 0001187  87.7494 272.3634 15.08847598 86103,6917.857,95.437,540.543,538.901,0.0
51997.0,STARLINK-3589,PAYLOAD,2023-09-29 10:02:47,15.08841074,0.0001193,53.2161,64.6775,88.3117,271.8011,0.0001587,2.239e-05,0.0,0 STARLINK-3589,1 51997U 22025AT  23272.41860328  .00002239  00000-0  15870-3 0  9990,2 51997  53.2161  64.6775 0001193  88.3117 271.8011 15.08841074 87720,6917.877,95.437,540.567,538.917,0.0
